[{"OBJECT_NAME":"STARLINK-3607","OBJECT_ID":"2022-017AT","EPOCH":"2026-03-09T21:31:25.452768","MEAN_MOTION":15.08852055,"ECCENTRICITY":0.00015183,"INCLINATION":53.2199,"RA_OF_ASC_NODE":338.1512,"ARG_OF_PERICENTER":55.8956,"MEAN_ANOMALY":304.218,"EPHEMERIS_TYPE":0,"CLASSIFICATION_TYPE":"U","NORAD_CAT_ID":51809,"ELEMENT_SET_NO":999,"REV_AT_EPOCH":22409,"BSTAR":0.00015558195,"MEAN_MOTION_DOT":2.19e-5,"MEAN_MOTION_DDOT":0},{"OBJECT_NAME":"CZ-6A DEB","OBJECT_ID":"2022-151NM","EPOCH":"2026-03-09T04:15:16.361280","MEAN_MOTION":14.99821734,"ECCENTRICITY":0.00563118,"INCLINATION":98.6044,"RA_OF_ASC_NODE":155.614,"ARG_OF_PERICENTER":130.481,"MEAN_ANOMALY":230.1339,"EPHEMERIS_TYPE":0,"CLASSIFICATION_TYPE":"U","NORAD_CAT_ID":54611,"ELEMENT_SET_NO":999,"REV_AT_EPOCH":17682,"BSTAR":0.0044540946,"MEAN_MOTION_DOT":0.00057345,"MEAN_MOTION_DDOT":0}]
